NORAD_CAT_ID,OBJECT_NAME,OBJECT_TYPE,EPOCH,MEAN_MOTION,ECCENTRICITY,INCLINATION,RA_OF_ASC_NODE,ARG_OF_PERICENTER,MEAN_ANOMALY,BSTAR,MEAN_MOTION_DOT,MEAN_MOTION_DDOT,TLE_LINE0,TLE_LINE1,TLE_LINE2,SEMIMAJOR_AXIS,PERIOD,APOGEE,PERIGEE,DECAYED
53723.0,STARLINK-4705,PAYLOAD,2023-12-03 13:59:06,15.08781678,0.0001894,53.22,6.7995,76.7987,283.3216,-0.00019172,-3.333e-05,0.0,0 STARLINK-4705,1 53723U 22107Z   23337.58271953 -.00003333  00000-0 -19172-3 0  9997,2 53723  53.2200   6.7995 0001894  76.7987 283.3216 15.08781678 69096,6918.059,95.441,541.234,538.613,0.0
53723.0,STARLINK-4705,PAYLOAD,2023-12-04 02:42:12,15.08821417,0.0001466,53.2183,4.414,88.5893,271.5267,0.002213,0.0003509,0.0,0 STARLINK-4705,1 53723U 22107Z   23338.11263955  .00035090  00000-0  22130-2 0  9990,2 53723  53.2183   4.4140 0001466  88.5893 271.5267 15.08821417 69175,6917.937,95.439,540.816,538.788,0.0
53723.0,STARLINK-4705,PAYLOAD,2023-12-04 12:14:30,15.08856244,0.0001514,53.2183,2.6304,98.0418,262.0746,0.0015272,0.00024112,0.0,0 STARLINK-4705,1 53723U 22107Z   23338.51007332  .00024112  00000-0  15272-2 0  9991,2 53723  53.2183   2.6304 0001514  98.0418 262.0746 15.08856244 69836,6917.831,95.437,540.743,538.648,0.0
53723.0,STARLINK-4705,PAYLOAD,2023-12-05 10:29:52,15.08873792,0.000146,53.2174,358.466,100.7031,259.4125,0.00050915,7.832e-05,0.0,0 STARLINK-4705,1 53723U 22107Z   23339.43741493  .00007832  00000-0  50915-3 0  9990,2 53723  53.2174 358.4660 0001460 100.7031 259.4125 15.08873792 69372,6917.777,95.435,540.652,538.632,0.0
53723.0,STARLINK-4705,PAYLOAD,2023-12-05 20:02:11,15.08862088,0.0001558,53.217,356.6866,92.9365,267.1806,0.00016102,2.277e-05,0.0,0 STARLINK-4705,1 53723U 22107Z   23339.83485332  .00002277  00000-0  16102-3 0  9999,2 53723  53.2170 356.6866 0001558  92.9365 267.1806 15.08862088 69431,6917.813,95.436,540.756,538.6,0.0
53723.0,STARLINK-4705,PAYLOAD,2023-12-06 00:48:20,15.08852714,0.0001256,53.2185,355.7918,126.4932,233.6176,-7.9131e-05,-1.547e-05,0.0,0 STARLINK-4705,1 53723U 22107Z   23340.03357158 -.00001547  00000-0 -79131-4 0  9990,2 53723  53.2185 355.7918 0001256 126.4932 233.6176 15.08852714 69469,6917.842,95.437,540.575,538.838,0.0
53723.0,STARLINK-4705,PAYLOAD,2023-12-06 10:20:39,15.08855329,0.0001466,53.2171,354.008,102.0352,258.0804,2.0708e-06,-2.55e-06,0.0,0 STARLINK-4705,1 53723U 22107Z   23340.43101005 -.00000255  00000-0  20708-5 0  9993,2 53723  53.2171 354.0080 0001466 102.0352 258.0804 15.08855329 70124,6917.834,95.437,540.713,538.684,0.0
53723.0,STARLINK-4705,PAYLOAD,2023-12-07 05:25:17,15.08841119,0.0001558,53.2183,350.4382,100.2632,259.8536,-0.00011642,-2.14e-05,0.0,0 STARLINK-4705,1 53723U 22107Z   23341.22589485 -.00002140  00000-0 -11642-3 0  9994,2 53723  53.2183 350.4382 0001558 100.2632 259.8536 15.08841119 69643,6917.877,95.437,540.82,538.664,0.0
53723.0,STARLINK-4705,PAYLOAD,2023-12-07 10:11:26,15.08844708,0.000158,53.2186,349.546,97.444,262.6732,-7.7359e-05,-1.519e-05,0.0,0 STARLINK-4705,1 53723U 22107Z   23341.42461487 -.00001519  00000-0 -77359-4 0  9994,2 53723  53.2186 349.5460 0001580  97.4440 262.6732 15.08844708 70279,6917.866,95.437,540.824,538.638,0.0
53723.0,STARLINK-4705,PAYLOAD,2023-12-08 06:51:27,15.08843442,0.0001635,53.2177,345.6838,63.9858,296.1303,0.00017479,2.495e-05,0.0,0 STARLINK-4705,1 53723U 22107Z   23342.28573868  .00002495  00000-0  17479-3 0  9994,2 53723  53.2177 345.6838 0001635  63.9858 296.1303 15.08843442 69804,6917.87,95.437,540.866,538.604,0.0
53723.0,STARLINK-4705,PAYLOAD,2023-12-09 06:42:14,15.08846857,0.0001609,53.218,341.2199,101.6683,258.4489,0.00022897,3.359e-05,0.0,0 STARLINK-4705,1 53723U 22107Z   23343.27933637  .00003359  00000-0  22897-3 0  9998,2 53723  53.2180 341.2199 0001609 101.6683 258.4489 15.08846857 70550,6917.859,95.437,540.838,538.611,0.0
53723.0,STARLINK-4705,PAYLOAD,2023-12-10 09:43:48,15.08844896,0.0001678,53.2182,336.1655,97.2396,262.8787,9.6927e-05,1.255e-05,0.0,0 STARLINK-4705,1 53723U 22107Z   23344.40541693  .00001255  00000-0  96927-4 0  9990,2 53723  53.2182 336.1655 0001678  97.2396 262.8787 15.08844896 70123,6917.865,95.437,540.891,538.57,0.0
53723.0,STARLINK-4705,PAYLOAD,2023-12-11 04:48:26,15.08836261,0.0001602,53.2184,332.5968,103.3568,256.7602,-1.6334e-05,-5.48e-06,0.0,0 STARLINK-4705,1 53723U 22107Z   23345.20030361 -.00000548  00000-0 -16334-4 0  9994,2 53723  53.2184 332.5968 0001602 103.3568 256.7602 15.08836261 70247,6917.892,95.438,540.865,538.649,0.0
53723.0,STARLINK-4705,PAYLOAD,2023-12-12 03:03:49,15.08843313,0.0001611,53.2186,328.4344,105.4137,254.7033,5.903e-05,6.52e-06,0.0,0 STARLINK-4705,1 53723U 22107Z   23346.12765691  .00000652  00000-0  59030-4 0  9991,2 53723  53.2186 328.4344 0001611 105.4137 254.7033 15.08843313 70383,6917.87,95.437,540.85,538.621,0.0
53723.0,STARLINK-4705,PAYLOAD,2023-12-12 04:39:12,15.08839497,0.0001566,53.2184,328.1349,101.4631,258.6537,0.0001558,2.192e-05,0.0,0 STARLINK-4705,1 53723U 22107Z   23346.19389836  .00002192  00000-0  15580-3 0  9993,2 53723  53.2184 328.1349 0001566 101.4631 258.6537 15.08839497 70994,6917.882,95.438,540.83,538.664,0.0
53723.0,STARLINK-4705,PAYLOAD,2023-12-13 02:54:37,15.08840785,0.0001461,53.2179,323.97,90.9013,269.2147,8.9156e-05,1.131e-05,0.0,0 STARLINK-4705,1 53723U 22107Z   23347.12126200  .00001131  00000-0  89156-4 0  9994,2 53723  53.2179 323.9700 0001461  90.9013 269.2147 15.08840785 70539,6917.878,95.438,540.754,538.732,0.0
53723.0,STARLINK-4705,PAYLOAD,2023-12-13 06:05:23,15.08840821,0.0001415,53.2179,323.3788,81.693,278.4222,8.1192e-05,1.004e-05,0.0,0 STARLINK-4705,1 53723U 22107Z   23347.25374238  .00001004  00000-0  81192-4 0  9995,2 53723  53.2179 323.3788 0001415  81.6930 278.4222 15.08840821 71159,6917.878,95.438,540.722,538.764,0.0
53723.0,STARLINK-4705,PAYLOAD,2023-12-14 04:20:46,15.08850485,0.0001317,53.2191,319.2188,92.997,267.1173,0.00015255,2.141e-05,0.0,0 STARLINK-4705,1 53723U 22107Z   23348.18109581  .00002141  00000-0  15255-3 0  9994,2 53723  53.2191 319.2188 0001317  92.9970 267.1173 15.08850485 70696,6917.848,95.437,540.624,538.802,0.0
53723.0,STARLINK-4705,PAYLOAD,2023-12-14 05:56:10,15.08847193,0.0001426,53.2189,318.9207,101.3597,258.7555,6.6275e-05,7.67e-06,0.0,0 STARLINK-4705,1 53723U 22107Z   23348.24733876  .00000767  00000-0  66275-4 0  9992,2 53723  53.2189 318.9207 0001426 101.3597 258.7555 15.08847193 71303,6917.858,95.437,540.71,538.737,0.0
53723.0,STARLINK-4705,PAYLOAD,2023-12-15 04:11:34,15.08845429,0.0001933,53.2186,314.7549,61.2257,298.8929,0.00011097,1.479e-05,0.0,0 STARLINK-4705,1 53723U 22107Z   23349.17470028  .00001479  00000-0  11097-3 0  9994,2 53723  53.2186 314.7549 0001933  61.2257 298.8929 15.08845429 70841,6917.864,95.437,541.066,538.392,0.0
53723.0,STARLINK-4705,PAYLOAD,2023-12-16 04:02:21,15.08837527,0.000152,53.2191,310.2971,84.8329,275.2837,2.789e-05,1.56e-06,0.0,0 STARLINK-4705,1 53723U 22107Z   23350.16830762  .00000156  00000-0  27890-4 0  9990,2 53723  53.2191 310.2971 0001520  84.8329 275.2837 15.08837527 70993,6917.888,95.438,540.804,538.701,0.0
53723.0,STARLINK-4705,PAYLOAD,2023-12-17 03:53:07,15.08853335,0.0001414,53.2181,305.8347,112.8249,247.2893,2.9651e-05,1.84e-06,0.0,0 STARLINK-4705,1 53723U 22107Z   23351.16189654  .00000184  00000-0  29651-4 0  9996,2 53723  53.2181 305.8347 0001414 112.8249 247.2893 15.08853335 71148,6917.84,95.437,540.683,538.726,0.0
53723.0,STARLINK-4705,PAYLOAD,2023-12-18 03:43:54,15.08842855,0.0001109,53.2173,301.376,93.8272,266.2846,-0.00016449,-2.905e-05,0.0,0 STARLINK-4705,1 53723U 22107Z   23352.15548689 -.00002905  00000-0 -16449-3 0  9998,2 53723  53.2173 301.3760 0001109  93.8272 266.2846 15.08842855 71294,6917.872,95.437,540.504,538.969,0.0
53723.0,STARLINK-4705,PAYLOAD,2023-12-19 01:59:19,15.08821506,0.0001296,53.2165,297.2156,108.8593,251.2539,-0.00044665,-7.386e-05,0.0,0 STARLINK-4705,1 53723U 22107Z   23353.08286568 -.00007386  00000-0 -44665-3 0  9995,2 53723  53.2165 297.2156 0001296 108.8593 251.2539 15.08821506 71436,6917.937,95.439,540.698,538.905,0.0
53723.0,STARLINK-4705,PAYLOAD,2023-12-20 01:50:07,15.08829555,0.000196,53.2168,292.7513,48.6997,311.4164,0.00076389,0.00011887,0.0,0 STARLINK-4705,1 53723U 22107Z   23354.07647838  .00011887  00000-0  76389-3 0  9993,2 53723  53.2168 292.7513 0001960  48.6997 311.4164 15.08829555 71584,6917.912,95.438,541.133,538.421,0.0
53723.0,STARLINK-4705,PAYLOAD,2023-12-21 03:16:17,15.08857544,0.0001844,53.2168,287.9959,64.0617,296.0565,0.00051859,7.979e-05,0.0,0 STARLINK-4705,1 53723U 22107Z   23355.13630973  .00007979  00000-0  51859-3 0  9995,2 53723  53.2168 287.9959 0001844  64.0617 296.0565 15.08857544 71746,6917.827,95.436,540.967,538.416,0.0
53723.0,STARLINK-4705,PAYLOAD,2023-12-22 03:07:04,15.08843528,0.0001467,53.2162,283.5377,92.6039,267.5121,0.0001854,2.664e-05,0.0,0 STARLINK-4705,1 53723U 22107Z   23356.12991104  .00002664  00000-0  18540-3 0  9997,2 53723  53.2162 283.5377 0001467  92.6039 267.5121 15.08843528 71896,6917.87,95.437,540.749,538.72,0.0
53723.0,STARLINK-4705,PAYLOAD,2023-12-23 01:22:28,15.08842329,0.0001464,53.2153,279.3729,71.1589,288.9562,0.00030563,4.58e-05,0.0,0 STARLINK-4705,1 53723U 22107Z   23357.05727357  .00004580  00000-0  30563-3 0  9995,2 53723  53.2153 279.3729 0001464  71.1589 288.9562 15.08842329 72030,6917.873,95.437,540.751,538.725,0.0
53723.0,STARLINK-4705,PAYLOAD,2023-12-23 22:02:29,15.08841323,0.0001613,53.2163,275.5057,100.9961,259.1212,0.00036549,5.534e-05,0.0,0 STARLINK-4705,1 53723U 22107Z   23357.91839693  .00005534  00000-0  36549-3 0  9997,2 53723  53.2163 275.5057 0001613 100.9961 259.1212 15.08841323 72769,6917.876,95.437,540.857,538.625,0.0
53723.0,STARLINK-4705,PAYLOAD,2023-12-24 01:13:15,15.08844598,0.0001401,53.2164,274.9093,79.3554,280.7596,0.00034716,5.242e-05,0.0,0 STARLINK-4705,1 53723U 22107Z   23358.05087691  .00005242  00000-0  34716-3 0  9996,2 53723  53.2164 274.9093 0001401  79.3554 280.7596 15.08844598 72183,6917.866,95.437,540.701,538.762,0.0
